[{"OBJECT_NAME":"STARLINK-4385","OBJECT_ID":"2022-084K","EPOCH":"2026-03-09T16:55:25.071456","MEAN_MOTION":15.01260008,"ECCENTRICITY":0.00030379,"INCLINATION":97.602,"RA_OF_ASC_NODE":130.2285,"ARG_OF_PERICENTER":72.6956,"MEAN_ANOMALY":287.4601,"EPHEMERIS_TYPE":0,"CLASSIFICATION_TYPE":"U","NORAD_CAT_ID":53198,"ELEMENT_SET_NO":999,"REV_AT_EPOCH":19997,"BSTAR":2.3269437e-5,"MEAN_MOTION_DOT":2.41e-6,"MEAN_MOTION_DDOT":0},{"OBJECT_NAME":"COSMOS 2242","OBJECT_ID":"1993-024A","EPOCH":"2026-03-09T23:17:07.942848","MEAN_MOTION":14.96550444,"ECCENTRICITY":0.00151707,"INCLINATION":82.5157,"RA_OF_ASC_NODE":266.4481,"ARG_OF_PERICENTER":307.8411,"MEAN_ANOMALY":52.1437,"EPHEMERIS_TYPE":0,"CLASSIFICATION_TYPE":"U","NORAD_CAT_ID":22626,"ELEMENT_SET_NO":999,"REV_AT_EPOCH":78043,"BSTAR":0.00021609887,"MEAN_MOTION_DOT":2.488e-5,"MEAN_MOTION_DDOT":0}]
